{"type": "FeatureCollection", "features": [ {"type": "Feature", "properties": {"norad_id": 31256, "name": "FENGYUN 1C DEB", "group": "fengyun-1c-debris", "lat": 68.23561296619589, "lon": 38.92680708866649, "alt_km": 651.8218335389101, "timestamp": "2025-12-14T20:40:32.053037+00:00", "meta": {"OBJECT_NAME": "FENGYUN 1C DEB", "OBJECT_ID": "1999-025BMN", "EPOCH": "2025-12-12T20:15:20.871648", "MEAN_MOTION": 14.03288041, "ECCENTRICITY": 0.03084701, "INCLINATION": 98.6814, "RA_OF_ASC_NODE": 194.4983, "ARG_OF_PERICENTER": 113.6621, "MEAN_ANOMALY": 249.7243, "EPHEMERIS_TYPE": 0, "CLASSIFICATION_TYPE": "U", "NORAD_CAT_ID": 31256, "ELEMENT_SET_NO": 999, "REV_AT_EPOCH": 64983, "BSTAR": 0.0035765382, "MEAN_MOTION_DOT": 8.48e-05, "MEAN_MOTION_DDOT": 0}, "tle": {"line1": "1 31256U 99025BMN 25346.84399157  .00008480  00000+0  35765-2 0  9995", "line2": "2 31256  98.6814 194.4983 0308470 113.6621 249.7243 14.03288041649837"}}, "geometry": {"type": "Point", "coordinates": [38.92680708866649, 68.23561296619589]}}, {"type": "Feature", "properties": {"norad_id": 31258, "name": "FENGYUN 1C DEB", "group": "fengyun-1c-debris", "lat": -17.333907974954034, "lon": 140.87095710917626, "alt_km": 526.916998672973, "timestamp": "2025-12-14T20:40:32.053047+00:00", "meta": {"OBJECT_NAME": "FENGYUN 1C DEB", "OBJECT_ID": "1999-025BMQ", "EPOCH": "2025-12-14T08:20:22.005888", "MEAN_MOTION": 15.13395544, "ECCENTRICITY": 0.00054679, "INCLINATION": 98.8474, "RA_OF_ASC_NODE": 137.4883, "ARG_OF_PERICENTER": 315.642, "MEAN_ANOMALY": 108.0151, "EPHEMERIS_TYPE": 0, "CLASSIFICATION_TYPE": "U", "NORAD_CAT_ID": 31258, "ELEMENT_SET_NO": 999, "REV_AT_EPOCH": 97135, "BSTAR": 0.010549261, "MEAN_MOTION_DOT": 0.00193277, "MEAN_MOTION_DDOT": 0}, "tle": {"line1": "1 31258U 99025BMQ 25348.34747692  .00193277  00000+0  10549-1 0  9996", "line2": "2 31258  98.8474 137.4883 0005467 315.6420 108.0151 15.13395544971359"}}, "geometry": {"type": "Point", "coordinates": [140.87095710917626, -17.333907974954034]}}, {"type": "Feature", "properties": {"norad_id": 31259, "name": "FENGYUN 1C DEB", "group": "fengyun-1c-debris", "lat": -39.478215869389686, "lon": -119.43072958003408, "alt_km": 807.2848399562436, "timestamp": "2025-12-14T20:40:32.053058+00:00", "meta": {"OBJECT_NAME": "FENGYUN 1C DEB", "OBJECT_ID": "1999-025BMR", "EPOCH": "2025-12-14T04:37:57.787680", "MEAN_MOTION": 14.15039499, "ECCENTRICITY": 0.00658528, "INCLINATION": 99.0095, "RA_OF_ASC_NODE": 67.4036, "ARG_OF_PERICENTER": 191.9643, "MEAN_ANOMALY": 224.3328, "EPHEMERIS_TYPE": 0, "CLASSIFICATION_TYPE": "U", "NORAD_CAT_ID": 31259, "ELEMENT_SET_NO": 999, "REV_AT_EPOCH": 95590, "BSTAR": 0.0018779739, "MEAN_MOTION_DOT": 3.67e-05, "MEAN_MOTION_DDOT": 0}, "tle": {"line1": "1 31259U 99025BMR 25348.19302995  .00003670  00000+0  18780-2 0  9996", "line2": "2 31259  99.0095  67.4036 0065852 191.9643 224.3328 14.15039499955906"}}, "geometry": {"type": "Point", "coordinates": [-119.43072958003408, -39.478215869389686]}}, {"type": "Feature", "properties": {"norad_id": 31260, "name": "FENGYUN 1C DEB", "group": "fengyun-1c-debris", "lat": 71.11463718811312, "lon": 93.33731339936877, "alt_km": 796.9301003104092, "timestamp": "2025-12-14T20:40:32.053068+00:00", "meta": {"OBJECT_NAME": "FENGYUN 1C DEB", "OBJECT_ID": "1999-025BMS", "EPOCH": "2025-12-13T15:53:54.746016", "MEAN_MOTION": 14.36434861, "ECCENTRICITY": 0.00469447, "INCLINATION": 98.9562, "RA_OF_ASC_NODE": 244.6398, "ARG_OF_PERICENTER": 289.943, "MEAN_ANOMALY": 99.7736, "EPHEMERIS_TYPE": 0, "CLASSIFICATION_TYPE": "U", "NORAD_CAT_ID": 31260, "ELEMENT_SET_NO": 999, "REV_AT_EPOCH": 97207, "BSTAR": 0.0012896868, "MEAN_MOTION_DOT": 3.782e-05, "MEAN_MOTION_DDOT": 0}, "tle": {"line1": "1 31260U 99025BMS 25347.66243919  .00003782  00000+0  12897-2 0  9996", "line2": "2 31260  98.9562 244.6398 0046944 289.9430  99.7736 14.36434861972077"}}, "geometry": {"type": "Point", "coordinates": [93.33731339936877, 71.11463718811312]}}, {"type": "Feature", "properties": {"norad_id": 31261, "name": "FENGYUN 1C DEB", "group": "fengyun-1c-debris", "lat": 29.850829263785972, "lon": 127.60994468689603, "alt_km": 748.3663572184241, "timestamp": "2025-12-14T20:40:32.053078+00:00", "meta": {"OBJECT_NAME": "FENGYUN 1C DEB", "OBJECT_ID": "1999-025BMT", "EPOCH": "2025-12-13T07:17:36.200544", "MEAN_MOTION": 14.40092738, "ECCENTRICITY": 0.00499745, "INCLINATION": 99.0155, "RA_OF_ASC_NODE": 300.7433, "ARG_OF_PERICENTER": 231.1909, "MEAN_ANOMALY": 128.481, "EPHEMERIS_TYPE": 0, "CLASSIFICATION_TYPE": "U", "NORAD_CAT_ID": 31261, "ELEMENT_SET_NO": 999, "REV_AT_EPOCH": 97358, "BSTAR": 0.0016949797, "MEAN_MOTION_DOT": 5.383e-05, "MEAN_MOTION_DDOT": 0}, "tle": {"line1": "1 31261U 99025BMT 25347.30389121  .00005383  00000+0  16950-2 0  9997", "line2": "2 31261  99.0155 300.7433 0049974 231.1909 128.4810 14.40092738973586"}}, "geometry": {"type": "Point", "coordinates": [127.60994468689603, 29.850829263785972]}}, {"type": "Feature", "properties": {"norad_id": 31262, "name": "FENGYUN 1C DEB", "group": "fengyun-1c-debris", "lat": 0.9052809281770064, "lon": 72.2065393805129, "alt_km": 834.6421565033997, "timestamp": "2025-12-14T20:40:32.053088+00:00", "meta": {"OBJECT_NAME": "FENGYUN 1C DEB", "OBJECT_ID": "1999-025BMU", "EPOCH": "2025-12-14T05:46:22.869408", "MEAN_MOTION": 14.18199991, "ECCENTRICITY": 0.0054765, "INCLINATION": 99.0041, "RA_OF_ASC_NODE": 71.7204, "ARG_OF_PERICENTER": 93.7375, "MEAN_ANOMALY": 339.4661, "EPHEMERIS_TYPE": 0, "CLASSIFICATION_TYPE": "U", "NORAD_CAT_ID": 31262, "ELEMENT_SET_NO": 999, "REV_AT_EPOCH": 95730, "BSTAR": 0.0019957273, "MEAN_MOTION_DOT": 4.12e-05, "MEAN_MOTION_DDOT": 0}, "tle": {"line1": "1 31262U 99025BMU 25348.24054247  .00004120  00000+0  19957-2 0  9998", "line2": "2 31262  99.0041  71.7204 0054765  93.7375 339.4661 14.18199991957309"}}, "geometry": {"type": "Point", "coordinates": [72.2065393805129, 0.9052809281770064]}}, {"type": "Feature", "properties": {"norad_id": 31263, "name": "FENGYUN 1C DEB", "group": "fengyun-1c-debris", "lat": -0.029154842377033155, "lon": -86.39845723018904, "alt_km": 393.01373586194586, "timestamp": "2025-12-14T20:40:32.053098+00:00", "meta": {"OBJECT_NAME": "FENGYUN 1C DEB", "OBJECT_ID": "1999-025BMV", "EPOCH": "2025-12-13T07:41:23.477568", "MEAN_MOTION": 15.5532409, "ECCENTRICITY": 0.00241251, "INCLINATION": 98.9847, "RA_OF_ASC_NODE": 271.6551, "ARG_OF_PERICENTER": 120.5004, "MEAN_ANOMALY": 239.8632, "EPHEMERIS_TYPE": 0, "CLASSIFICATION_TYPE": "U", "NORAD_CAT_ID": 31263, "ELEMENT_SET_NO": 999, "REV_AT_EPOCH": 97175, "BSTAR": 0.026389577, "MEAN_MOTION_DOT": 0.02016968, "MEAN_MOTION_DDOT": 0}, "tle": {"line1": "1 31263U 99025BMV 25347.32041062  .02016968  00000+0  26390-1 0  9991", "line2": "2 31263  98.9847 271.6551 0024125 120.5004 239.8632 15.55324090971751"}}, "geometry": {"type": "Point", "coordinates": [-86.39845723018904, -0.029154842377033155]}}, {"type": "Feature", "properties": {"norad_id": 31264, "name": "FENGYUN 1C DEB", "group": "fengyun-1c-debris", "lat": -22.310513503512357, "lon": -110.32089520406282, "alt_km": 834.7158413651832, "timestamp": "2025-12-14T20:40:32.053108+00:00", "meta": {"OBJECT_NAME": "FENGYUN 1C DEB", "OBJECT_ID": "1999-025BMW", "EPOCH": "2025-12-13T11:47:08.975040", "MEAN_MOTION": 14.18593263, "ECCENTRICITY": 0.0001071, "INCLINATION": 99.1141, "RA_OF_ASC_NODE": 244.4948, "ARG_OF_PERICENTER": 9.3385, "MEAN_ANOMALY": 173.4712, "EPHEMERIS_TYPE": 0, "CLASSIFICATION_TYPE": "U", "NORAD_CAT_ID": 31264, "ELEMENT_SET_NO": 999, "REV_AT_EPOCH": 96439, "BSTAR": 0.00084680361, "MEAN_MOTION_DOT": 1.707e-05, "MEAN_MOTION_DDOT": 0}, "tle": {"line1": "1 31264U 99025BMW 25347.49107610  .00001707  00000+0  84680-3 0  9993", "line2": "2 31264  99.1141 244.4948 0001071   9.3385 173.4712 14.18593263964393"}}, "geometry": {"type": "Point", "coordinates": [-110.32089520406282, -22.310513503512357]}}, {"type": "Feature", "properties": {"norad_id": 31266, "name": "FENGYUN 1C DEB", "group": "fengyun-1c-debris", "lat": 38.61766407550808, "lon": -35.48484233997063, "alt_km": 861.8676493519852, "timestamp": "2025-12-14T20:40:32.053119+00:00", "meta": {"OBJECT_NAME": "FENGYUN 1C DEB", "OBJECT_ID": "1999-025BMY", "EPOCH": "2025-12-13T05:44:02.433120", "MEAN_MOTION": 14.22336445, "ECCENTRICITY": 0.01296995, "INCLINATION": 99.257, "RA_OF_ASC_NODE": 330.2974, "ARG_OF_PERICENTER": 282.7808, "MEAN_ANOMALY": 91.6538, "EPHEMERIS_TYPE": 0, "CLASSIFICATION_TYPE": "U", "NORAD_CAT_ID": 31266, "ELEMENT_SET_NO": 999, "REV_AT_EPOCH": 97213, "BSTAR": 0.00052457623, "MEAN_MOTION_DOT": 1.221e-05, "MEAN_MOTION_DDOT": 0}, "tle": {"line1": "1 31266U 99025BMY 25347.23891705  .00001221  00000+0  52458-3 0  9991", "line2": "2 31266  99.2570 330.2974 0129699 282.7808  91.6538 14.22336445972139"}}, "geometry": {"type": "Point", "coordinates": [-35.48484233997063, 38.61766407550808]}}, {"type": "Feature", "properties": {"norad_id": 31268, "name": "FENGYUN 1C DEB", "group": "fengyun-1c-debris", "lat": 59.222925297612164, "lon": 16.00255754104795, "alt_km": 882.0562705519787, "timestamp": "2025-12-14T20:40:32.053129+00:00", "meta": {"OBJECT_NAME": "FENGYUN 1C DEB", "OBJECT_ID": "1999-025BNA", "EPOCH": "2025-12-13T20:28:59.966112", "MEAN_MOTION": 14.06415523, "ECCENTRICITY": 0.00495712, "INCLINATION": 98.7556, "RA_OF_ASC_NODE": 30.024, "ARG_OF_PERICENTER": 180.2607, "MEAN_ANOMALY": 179.8544, "EPHEMERIS_TYPE": 0, "CLASSIFICATION_TYPE": "U", "NORAD_CAT_ID": 31268, "ELEMENT_SET_NO": 999, "REV_AT_EPOCH": 62048, "BSTAR": 0.00090714334, "MEAN_MOTION_DOT": 1.473e-05, "MEAN_MOTION_DDOT": 0}, "tle": {"line1": "1 31268U 99025BNA 25347.85347183  .00001473  00000+0  90714-3 0  9993", "line2": "2 31268  98.7556  30.0240 0049571 180.2607 179.8544 14.06415523620480"}}, "geometry": {"type": "Point", "coordinates": [16.00255754104795, 59.222925297612164]}}]}